{
    "links": {
        "self": "http://www.neowsapp.com/rest/v1/neo/3137731?api_key=iIulBulltgU6a56xZRHN4H3l9WmuAYTsLGpBGhQ2"
    },
    "id": "3137731",
    "neo_reference_id": "3137731",
    "name": "(2002 TZ57)",
    "designation": "2002 TZ57",
    "nasa_jpl_url": "http://ssd.jpl.nasa.gov/sbdb.cgi?sstr=3137731",
    "absolute_magnitude_h": 24.6,
    "estimated_diameter": {
        "kilometers": {
            "estimated_diameter_min": 0.0319561887,
            "estimated_diameter_max": 0.0714562102
        },
        "meters": {
            "estimated_diameter_min": 31.9561886721,
            "estimated_diameter_max": 71.4562101727
        },
        "miles": {
            "estimated_diameter_min": 0.0198566489,
            "estimated_diameter_max": 0.0444008168
        },
        "feet": {
            "estimated_diameter_min": 104.8431420431,
            "estimated_diameter_max": 234.436392583
        }
    },
    "is_potentially_hazardous_asteroid": false,
    "close_approach_data": [
        {
            "close_approach_date": "2002-03-29",
            "close_approach_date_full": "2002-Mar-29 04:36",
            "epoch_date_close_approach": 1017376560000,
            "relative_velocity": {
                "kilometers_per_second": "9.2459143513",
                "kilometers_per_hour": "33285.2916646885",
                "miles_per_hour": "20682.1858124282"
            },
            "miss_distance": {
                "astronomical": "0.3389735377",
                "lunar": "131.8607061653",
                "kilometers": "50709719.226284699",
                "miles": "31509558.4095748862"
            },
            "orbiting_body": "Earth"
        },
        {
            "close_approach_date": "2002-09-26",
            "close_approach_date_full": "2002-Sep-26 20:07",
            "epoch_date_close_approach": 1033070820000,
            "relative_velocity": {
                "kilometers_per_second": "10.9785628293",
                "kilometers_per_hour": "39522.8261856467",
                "miles_per_hour": "24557.9471929647"
            },
            "miss_distance": {
                "astronomical": "0.0456226524",
                "lunar": "17.7472117836",
                "kilometers": "6825051.622790388",
                "miles": "4240890.4256998344"
            },
            "orbiting_body": "Earth"
        },
        {
            "close_approach_date": "2129-04-04",
            "close_approach_date_full": "2129-Apr-04 13:16",
            "epoch_date_close_approach": 5025676560000,
            "relative_velocity": {
                "kilometers_per_second": "9.1661355288",
                "kilometers_per_hour": "32998.0879036087",
                "miles_per_hour": "20503.7285643284"
            },
            "miss_distance": {
                "astronomical": "0.3066124533",
                "lunar": "119.2722443337",
                "kilometers": "45868569.929154471",
                "miles": "28501407.7261388598"
            },
            "orbiting_body": "Earth"
        },
        {
            "close_approach_date": "2129-09-25",
            "close_approach_date_full": "2129-Sep-25 18:59",
            "epoch_date_close_approach": 5040730740000,
            "relative_velocity": {
                "kilometers_per_second": "10.0887677364",
                "kilometers_per_hour": "36319.563851143",
                "miles_per_hour": "22567.5645496171"
            },
            "miss_distance": {
                "astronomical": "0.0524880701",
                "lunar": "20.4178592689",
                "kilometers": "7852103.487370687",
                "miles": "4879070.8615300006"
            },
            "orbiting_body": "Earth"
        }
    ],
    "orbital_data": {
        "orbit_id": "7",
        "orbit_determination_date": "2017-04-06 09:14:47",
        "first_observation_date": "2002-10-03",
        "last_observation_date": "2002-10-10",
        "data_arc_in_days": 7,
        "observations_used": 22,
        "orbit_uncertainty": "8",
        "minimum_orbit_intersection": ".0419774",
        "jupiter_tisserand_invariant": "5.197",
        "epoch_osculation": "2452552.5",
        "eccentricity": ".2376214471138522",
        "semi_major_axis": "1.210968400561907",
        "inclination": "16.07585725275712",
        "ascending_node_longitude": "7.907413503791013",
        "orbital_period": "486.7406781572243",
        "perihelion_distance": ".9232163368112396",
        "perihelion_argument": "290.4714617401935",
        "aphelion_distance": "1.498720464312574",
        "perihelion_time": "2452488.281993544743",
        "mean_anomaly": "47.49650760938643",
        "mean_motion": ".7396135481483526",
        "equinox": "J2000",
        "orbit_class": {
            "orbit_class_type": "APO",
            "orbit_class_description": "Near-Earth asteroid orbits which cross the Earth’s orbit similar to that of 1862 Apollo",
            "orbit_class_range": "a (semi-major axis) > 1.0 AU; q (perihelion) < 1.017 AU"
        }
    },
    "is_sentry_object": false
}